start=new Date('2023-06-14T00:00:00.000Z').valueOf();
sats=[{"EPHEMERIS_TYPE":"0","PERIOD":"95.438","REF_FRAME":"TEME","FILE":"3931664","SEMIMAJOR_AXIS":"6917.890","OBJECT_ID":"2022-119J","MEAN_MOTION":"15.08836857","MEAN_MOTION_DDOT":"0.0000000000000","LAUNCH_DATE":"2022-09-24","APOAPSIS":"540.653","TIME_SYSTEM":"UTC","MEAN_ANOMALY":"268.7883","TLE_LINE1":"1 53894U 22119J   23164.19658736 -.00000466  00000-0 -11224-4 0  9997","OBJECT_NAME":"STARLINK-5043","BSTAR":"-0.00001122400000","EPOCH":"2023-06-13T04:43:05.147904","NORAD_CAT_ID":"53894","COUNTRY_CODE":"US","CENTER_NAME":"EARTH","RA_OF_ASC_NODE":"135.5406","REV_AT_EPOCH":"4022","RCS_SIZE":"LARGE","OBJECT_TYPE":"PAYLOAD","GP_ID":"233806492","MEAN_MOTION_DOT":"-0.00000466","INCLINATION":"53.2156","MEAN_ELEMENT_THEORY":"SGP4","DECAY_DATE":null,"ELEMENT_SET_NO":"999","CLASSIFICATION_TYPE":"U","PERIAPSIS":"538.857","ARG_OF_PERICENTER":"91.3258","ECCENTRICITY":"0.00012980","SITE":"AFETR","TLE_LINE2":"2 53894  53.2156 135.5406 0001298  91.3258 268.7883 15.08836857 40226"},{"APOAPSIS":"540.619","TIME_SYSTEM":"UTC","MEAN_MOTION_DDOT":"0.0000000000000","LAUNCH_DATE":"2022-09-24","EPOCH":"2023-06-13T07:37:56.256672","BSTAR":"0.00000540370000","COUNTRY_CODE":"US","NORAD_CAT_ID":"53895","MEAN_ANOMALY":"277.4005","TLE_LINE1":"1 53895U 22119K   23164.31801223 -.00000202  00000-0  54037-5 0  9990","OBJECT_NAME":"STARLINK-5032","REF_FRAME":"TEME","PERIOD":"95.438","FILE":"3932134","EPHEMERIS_TYPE":"0","SEMIMAJOR_AXIS":"6917.880","MEAN_MOTION":"15.08840238","OBJECT_ID":"2022-119K","MEAN_MOTION_DOT":"-0.00000202","GP_ID":"233842228","MEAN_ELEMENT_THEORY":"SGP4","INCLINATION":"53.2159","REV_AT_EPOCH":"4066","RCS_SIZE":"LARGE","OBJECT_TYPE":"PAYLOAD","ECCENTRICITY":"0.00012640","SITE":"AFETR","TLE_LINE2":"2 53895  53.2159 134.8802 0001264  82.7131 277.4005 15.08840238 40668","DECAY_DATE":null,"ELEMENT_SET_NO":"999","CLASSIFICATION_TYPE":"U","PERIAPSIS":"538.870","ARG_OF_PERICENTER":"82.7131","CENTER_NAME":"EARTH","RA_OF_ASC_NODE":"134.8802"},{"EPHEMERIS_TYPE":"0","FILE":"3932371","REF_FRAME":"TEME","PERIOD":"95.438","OBJECT_ID":"2022-119L","MEAN_MOTION":"15.08837869","SEMIMAJOR_AXIS":"6917.887","LAUNCH_DATE":"2022-09-24","MEAN_MOTION_DDOT":"0.0000000000000","TIME_SYSTEM":"UTC","APOAPSIS":"540.586","MEAN_ANOMALY":"270.6124","TLE_LINE1":"1 53896U 22119L   23164.24440657 -.00000083  00000-0  12870-4 0  9998","OBJECT_NAME":"STARLINK-5037","COUNTRY_CODE":"US","NORAD_CAT_ID":"53896","BSTAR":"0.00001287000000","EPOCH":"2023-06-13T05:51:56.727648","CENTER_NAME":"EARTH","RA_OF_ASC_NODE":"135.1306","OBJECT_TYPE":"PAYLOAD","RCS_SIZE":"LARGE","REV_AT_EPOCH":"4065","MEAN_ELEMENT_THEORY":"SGP4","INCLINATION":"53.2162","MEAN_MOTION_DOT":"-0.00000083","GP_ID":"233873686","PERIAPSIS":"538.918","CLASSIFICATION_TYPE":"U","ARG_OF_PERICENTER":"89.5006","ELEMENT_SET_NO":"999","DECAY_DATE":null,"TLE_LINE2":"2 53896  53.2162 135.1306 0001205  89.5006 270.6124 15.08837869 40659","SITE":"AFETR","ECCENTRICITY":"0.00012050"},{"CENTER_NAME":"EARTH","RA_OF_ASC_NODE":"132.2471","OBJECT_TYPE":"PAYLOAD","REV_AT_EPOCH":"4075","RCS_SIZE":"LARGE","MEAN_ELEMENT_THEORY":"SGP4","INCLINATION":"53.2159","GP_ID":"233873938","MEAN_MOTION_DOT":"0.00000393","PERIAPSIS":"538.968","ARG_OF_PERICENTER":"87.7667","CLASSIFICATION_TYPE":"U","ELEMENT_SET_NO":"999","DECAY_DATE":null,"TLE_LINE2":"2 53897  53.2159 132.2471 0001130  87.7667 272.3454 15.08838719 40758","SITE":"AFETR","ECCENTRICITY":"0.00011300","EPHEMERIS_TYPE":"0","FILE":"3932371","PERIOD":"95.438","REF_FRAME":"TEME","OBJECT_ID":"2022-119M","MEAN_MOTION":"15.08838719","SEMIMAJOR_AXIS":"6917.884","LAUNCH_DATE":"2022-09-24","MEAN_MOTION_DDOT":"0.0000000000000","TIME_SYSTEM":"UTC","APOAPSIS":"540.531","TLE_LINE1":"1 53897U 22119M   23164.92154185  .00000393  00000-0  42786-4 0  9994","MEAN_ANOMALY":"272.3454","OBJECT_NAME":"STARLINK-5035","NORAD_CAT_ID":"53897","COUNTRY_CODE":"US","EPOCH":"2023-06-13T22:07:01.215840","BSTAR":"0.00004278600000"},{"DECAY_DATE":null,"ELEMENT_SET_NO":"999","CLASSIFICATION_TYPE":"U","PERIAPSIS":"538.870","ARG_OF_PERICENTER":"87.7162","ECCENTRICITY":"0.00012660","TLE_LINE2":"2 53898  53.2166 132.0894 0001266  87.7162 272.3975 15.08839847 40755","SITE":"AFETR","RCS_SIZE":"LARGE","REV_AT_EPOCH":"4075","OBJECT_TYPE":"PAYLOAD","MEAN_MOTION_DOT":"0.00000047","GP_ID":"233874185","INCLINATION":"53.2166","MEAN_ELEMENT_THEORY":"SGP4","RA_OF_ASC_NODE":"132.0894","CENTER_NAME":"EARTH","MEAN_ANOMALY":"272.3975","TLE_LINE1":"1 53898U 22119N   23164.89574907  .00000047  00000-0  21060-4 0  9997","OBJECT_NAME":"STARLINK-5044","EPOCH":"2023-06-13T21:29:52.719648","BSTAR":"0.00002106000000","COUNTRY_CODE":"US","NORAD_CAT_ID":"53898","MEAN_MOTION_DDOT":"0.0000000000000","LAUNCH_DATE":"2022-09-24","TIME_SYSTEM":"UTC","APOAPSIS":"540.622","MEAN_MOTION":"15.08839847","OBJECT_ID":"2022-119N","SEMIMAJOR_AXIS":"6917.881","EPHEMERIS_TYPE":"0","PERIOD":"95.438","REF_FRAME":"TEME","FILE":"3932371"},{"INCLINATION":"53.2157","MEAN_ELEMENT_THEORY":"SGP4","MEAN_MOTION_DOT":"-0.00000047","GP_ID":"233841729","OBJECT_TYPE":"PAYLOAD","RCS_SIZE":"LARGE","REV_AT_EPOCH":"4066","TLE_LINE2":"2 53899  53.2157 134.7875 0001091  92.0753 268.0364 15.08836036 40666","SITE":"AFETR","ECCENTRICITY":"0.00010910","PERIAPSIS":"539.003","CLASSIFICATION_TYPE":"U","ARG_OF_PERICENTER":"92.0753","DECAY_DATE":null,"ELEMENT_SET_NO":"999","CENTER_NAME":"EARTH","RA_OF_ASC_NODE":"134.7875","TIME_SYSTEM":"UTC","APOAPSIS":"540.512","LAUNCH_DATE":"2022-09-24","MEAN_MOTION_DDOT":"0.0000000000000","NORAD_CAT_ID":"53899","COUNTRY_CODE":"US","BSTAR":"0.00001512700000","EPOCH":"2023-06-13T07:16:43.277088","OBJECT_NAME":"STARLINK-5042","TLE_LINE1":"1 53899U 22119P   23164.30327867 -.00000047  00000-0  15127-4 0  9993","MEAN_ANOMALY":"268.0364","FILE":"3932134","REF_FRAME":"TEME","PERIOD":"95.438","EPHEMERIS_TYPE":"0","OBJECT_ID":"2022-119P","MEAN_MOTION":"15.08836036","SEMIMAJOR_AXIS":"6917.893"},{"CENTER_NAME":"EARTH","RA_OF_ASC_NODE":"134.4205","OBJECT_TYPE":"PAYLOAD","RCS_SIZE":"LARGE","REV_AT_EPOCH":"4067","INCLINATION":"53.2153","MEAN_ELEMENT_THEORY":"SGP4","GP_ID":"233840477","MEAN_MOTION_DOT":"-0.00000235","PERIAPSIS":"539.050","CLASSIFICATION_TYPE":"U","ARG_OF_PERICENTER":"81.9544","DECAY_DATE":null,"ELEMENT_SET_NO":"999","SITE":"AFETR","TLE_LINE2":"2 53900  53.2153 134.4205 0001051  81.9544 278.1567 15.08829703 40671","ECCENTRICITY":"0.00010510","EPHEMERIS_TYPE":"0","FILE":"3932134","PERIOD":"95.438","REF_FRAME":"TEME","SEMIMAJOR_AXIS":"6917.912","MEAN_MOTION":"15.08829703","OBJECT_ID":"2022-119Q","LAUNCH_DATE":"2022-09-24","MEAN_MOTION_DDOT":"0.0000000000000","APOAPSIS":"540.504","TIME_SYSTEM":"UTC","TLE_LINE1":"1 53900U 22119Q   23164.35846644 -.00000235  00000-0  32907-5 0  9995","MEAN_ANOMALY":"278.1567","OBJECT_NAME":"STARLINK-5045","COUNTRY_CODE":"US","NORAD_CAT_ID":"53900","BSTAR":"0.00000329070000","EPOCH":"2023-06-13T08:36:11.500416"},{"ECCENTRICITY":"0.00011320","SITE":"AFETR","TLE_LINE2":"2 53901  53.2165 134.8088 0001132  87.8445 272.2677 15.08840782 40243","DECAY_DATE":null,"ELEMENT_SET_NO":"999","PERIAPSIS":"538.960","CLASSIFICATION_TYPE":"U","ARG_OF_PERICENTER":"87.8445","MEAN_MOTION_DOT":"0.00000619","GP_ID":"233845200","MEAN_ELEMENT_THEORY":"SGP4","INCLINATION":"53.2165","RCS_SIZE":"LARGE","REV_AT_EPOCH":"4024","OBJECT_TYPE":"PAYLOAD","RA_OF_ASC_NODE":"134.8088","CENTER_NAME":"EARTH","BSTAR":"0.00005695300000","EPOCH":"2023-06-13T07:22:01.248960","COUNTRY_CODE":"US","NORAD_CAT_ID":"53901","TLE_LINE1":"1 53901U 22119R   23164.30695890  .00000619  00000-0  56953-4 0  9997","MEAN_ANOMALY":"272.2677","OBJECT_NAME":"STARLINK-5024","APOAPSIS":"540.526","TIME_SYSTEM":"UTC","MEAN_MOTION_DDOT":"0.0000000000000","LAUNCH_DATE":"2022-09-24","SEMIMAJOR_AXIS":"6917.878","OBJECT_ID":"2022-119R","MEAN_MOTION":"15.08840782","REF_FRAME":"TEME","PERIOD":"95.438","FILE":"3932161","EPHEMERIS_TYPE":"0"},{"MEAN_ANOMALY":"260.1749","TLE_LINE1":"1 53902U 22119S   23164.16067545  .00000913  00000-0  75446-4 0  9997","OBJECT_NAME":"STARLINK-5021","COUNTRY_CODE":"US","NORAD_CAT_ID":"53902","BSTAR":"0.00007544600000","EPOCH":"2023-06-13T03:51:22.358880","LAUNCH_DATE":"2022-09-24","MEAN_MOTION_DDOT":"0.0000000000000","APOAPSIS":"540.419","TIME_SYSTEM":"UTC","SEMIMAJOR_AXIS":"6917.874","OBJECT_ID":"2022-119S","MEAN_MOTION":"15.08841978","EPHEMERIS_TYPE":"0","FILE":"3932134","PERIOD":"95.437","REF_FRAME":"TEME","CLASSIFICATION_TYPE":"U","PERIAPSIS":"539.059","ARG_OF_PERICENTER":"99.9354","DECAY_DATE":null,"ELEMENT_SET_NO":"999","SITE":"AFETR","TLE_LINE2":"2 53902  53.2191  85.4217 0000983  99.9354 260.1749 15.08841978 41340","ECCENTRICITY":"0.00009830","OBJECT_TYPE":"PAYLOAD","RCS_SIZE":"LARGE","REV_AT_EPOCH":"4134","MEAN_ELEMENT_THEORY":"SGP4","INCLINATION":"53.2191","GP_ID":"233841479","MEAN_MOTION_DOT":"0.00000913","RA_OF_ASC_NODE":"85.4217","CENTER_NAME":"EARTH"},{"SITE":"AFETR","TLE_LINE2":"2 53903  53.2176 134.8138 0001016  82.8232 277.2876 15.08840919 40667","ECCENTRICITY":"0.00010160","CLASSIFICATION_TYPE":"U","PERIAPSIS":"539.040","ARG_OF_PERICENTER":"82.8232","ELEMENT_SET_NO":"999","DECAY_DATE":null,"MEAN_ELEMENT_THEORY":"SGP4","INCLINATION":"53.2176","MEAN_MOTION_DOT":"0.00001014","GP_ID":"233842229","OBJECT_TYPE":"PAYLOAD","RCS_SIZE":"LARGE","REV_AT_EPOCH":"4066","RA_OF_ASC_NODE":"134.8138","CENTER_NAME":"EARTH","COUNTRY_CODE":"US","NORAD_CAT_ID":"53903","EPOCH":"2023-06-13T07:23:24.006336","BSTAR":"0.00008179200000","MEAN_ANOMALY":"277.2876","TLE_LINE1":"1 53903U 22119T   23164.30791674  .00001014  00000-0  81792-4 0  9995","OBJECT_NAME":"STARLINK-5022","APOAPSIS":"540.445","TIME_SYSTEM":"UTC","LAUNCH_DATE":"2022-09-24","MEAN_MOTION_DDOT":"0.0000000000000","SEMIMAJOR_AXIS":"6917.878","MEAN_MOTION":"15.08840919","OBJECT_ID":"2022-119T","FILE":"3932134","PERIOD":"95.437","REF_FRAME":"TEME","EPHEMERIS_TYPE":"0"}];
